NORAD_CAT_ID,OBJECT_NAME,OBJECT_TYPE,EPOCH,MEAN_MOTION,ECCENTRICITY,INCLINATION,RA_OF_ASC_NODE,ARG_OF_PERICENTER,MEAN_ANOMALY,BSTAR,MEAN_MOTION_DOT,MEAN_MOTION_DDOT,TLE_LINE0,TLE_LINE1,TLE_LINE2,SEMIMAJOR_AXIS,PERIOD,APOGEE,PERIGEE,DECAYED
56793.0,STARLINK-6052,PAYLOAD,2024-05-15 22:04:02,14.98365504,0.0003536,70.0002,215.5353,275.4306,84.645,0.00013022,1.462e-05,0.0,0 STARLINK-6052,1 56793U 23078AC  24136.91947372  .00001462  00000-0  13022-3 0  9992,2 56793  70.0002 215.5353 0003536 275.4306  84.6450 14.98365504 53403,6950.083,96.105,574.406,569.491,0.0
56793.0,STARLINK-6052,PAYLOAD,2024-05-16 12:29:15,14.9835206,0.0002849,70.0008,214.0213,269.702,90.3812,-0.00014969,-1.88e-05,0.0,0 STARLINK-6052,1 56793U 23078AC  24137.52032002 -.00001880  00000-0 -14969-3 0  9992,2 56793  70.0008 214.0213 0002849 269.7020  90.3812 14.98352060 53750,6950.125,96.106,573.97,570.01,0.0
56793.0,STARLINK-6052,PAYLOAD,2024-05-16 22:06:02,14.98362053,0.0003412,70.0001,213.0066,279.1143,80.963,-0.00019961,-2.476e-05,0.0,0 STARLINK-6052,1 56793U 23078AC  24137.92086568 -.00002476  00000-0 -19961-3 0  9991,2 56793  70.0001 213.0066 0003412 279.1143  80.9630 14.98362053 53550,6950.094,96.105,574.33,569.587,0.0
56793.0,STARLINK-6052,PAYLOAD,2024-05-17 12:31:15,14.98356429,0.0002826,70.0008,211.4961,268.53,91.5535,-0.00038678,-4.708e-05,0.0,0 STARLINK-6052,1 56793U 23078AC  24138.52170433 -.00004708  00000-0 -38678-3 0  9999,2 56793  70.0008 211.4961 0002826 268.5300  91.5535 14.98356429 53909,6950.111,96.105,573.94,570.012,0.0
56793.0,STARLINK-6052,PAYLOAD,2024-05-17 22:08:04,14.98348073,0.0003368,69.9994,210.4861,279.3924,80.6854,-0.00055153,-6.671e-05,0.0,0 STARLINK-6052,1 56793U 23078AC  24138.92226866 -.00006671  00000-0 -55153-3 0  9993,2 56793  69.9994 210.4861 0003368 279.3924  80.6854 14.98348073 53709,6950.137,96.106,574.343,569.661,0.0
56793.0,STARLINK-6052,PAYLOAD,2024-05-18 12:33:18,14.98318514,0.0003177,69.9991,208.9702,272.0195,88.06,-0.00018903,-2.347e-05,0.0,0 STARLINK-6052,1 56793U 23078AC  24139.52312503 -.00002347  00000-0 -18903-3 0  9992,2 56793  69.9991 208.9702 0003177 272.0195  88.0600 14.98318514 54057,6950.228,96.108,574.301,569.885,0.0
56793.0,STARLINK-6052,PAYLOAD,2024-05-18 14:09:25,14.98320854,0.0003124,69.9994,208.8026,272.6714,87.4088,-0.00015156,-1.901e-05,0.0,0 STARLINK-6052,1 56793U 23078AC  24139.58988318 -.00001901  00000-0 -15156-3 0  9993,2 56793  69.9994 208.8026 0003124 272.6714  87.4088 14.98320854 53808,6950.221,96.108,574.257,569.915,0.0
56793.0,STARLINK-6052,PAYLOAD,2024-05-18 22:10:05,14.98327759,0.0002942,70.0004,207.9585,271.6406,88.4416,-7.8958e-05,-1.035e-05,0.0,0 STARLINK-6052,1 56793U 23078AC  24139.92367874 -.00001035  00000-0 -78958-4 0  9997,2 56793  70.0004 207.9585 0002942 271.6406  88.4416 14.98327759 53859,6950.2,96.107,574.11,570.02,0.0
56793.0,STARLINK-6052,PAYLOAD,2024-05-19 04:34:37,14.98327292,0.0003133,69.9997,207.288,272.3055,87.7745,8.1231e-05,8.76e-06,0.0,0 STARLINK-6052,1 56793U 23078AC  24140.19071496  .00000876  00000-0  81231-4 0  9998,2 56793  69.9997 207.2880 0003133 272.3055  87.7745 14.98327292 54152,6950.201,96.107,574.244,569.889,0.0
56793.0,STARLINK-6052,PAYLOAD,2024-05-19 14:11:25,14.98342374,0.0003137,69.9996,206.2772,271.7062,88.3738,0.0001745,1.99e-05,0.0,0 STARLINK-6052,1 56793U 23078AC  24140.59126284  .00001990  00000-0  17450-3 0  9997,2 56793  69.9996 206.2772 0003137 271.7062  88.3738 14.98342374 53959,6950.155,96.106,574.2,569.839,0.0
56793.0,STARLINK-6052,PAYLOAD,2024-05-20 04:36:39,14.98272107,0.0002999,69.9997,204.762,271.2439,88.8376,0.0011192,0.00013266,0.0,0 STARLINK-6052,1 56793U 23078AC  24141.19212242  .00013266  00000-0  11192-2 0  9999,2 56793  69.9997 204.7620 0002999 271.2439  88.8376 14.98272107 54302,6950.372,96.111,574.321,570.153,0.0
56793.0,STARLINK-6052,PAYLOAD,2024-05-20 12:37:18,14.98334235,0.0003055,69.9997,203.9204,274.2251,85.8558,0.0002345,2.706e-05,0.0,0 STARLINK-6052,1 56793U 23078AC  24141.52590849  .00002706  00000-0  23450-3 0  9996,2 56793  69.9997 203.9204 0003055 274.2251  85.8558 14.98334235 54355,6950.18,96.107,574.168,569.922,0.0
56793.0,STARLINK-6052,PAYLOAD,2024-05-20 14:13:26,14.98336441,0.0003065,69.9998,203.7523,274.6343,85.4466,0.00025258,2.922e-05,0.0,0 STARLINK-6052,1 56793U 23078AC  24141.59266641  .00002922  00000-0  25258-3 0  9991,2 56793  69.9998 203.7523 0003065 274.6343  85.4466 14.98336441 54103,6950.173,96.107,574.168,569.908,0.0
56793.0,STARLINK-6052,PAYLOAD,2024-05-21 04:38:38,14.98350017,0.0002832,70.0005,202.2373,276.5561,83.5276,5.0067e-05,5.05e-06,0.0,0 STARLINK-6052,1 56793U 23078AC  24142.19349933  .00000505  00000-0  50067-4 0  9996,2 56793  70.0005 202.2373 0002832 276.5561  83.5276 14.98350017 54457,6950.131,96.106,573.964,570.028,0.0
56793.0,STARLINK-6052,PAYLOAD,2024-05-21 12:39:18,14.98339073,0.0002567,70.0003,201.3966,288.806,71.2821,-0.00012368,-1.569e-05,0.0,0 STARLINK-6052,1 56793U 23078AC  24142.52730173 -.00001569  00000-0 -12368-3 0  9997,2 56793  70.0003 201.3966 0002567 288.8060  71.2821 14.98339073 54503,6950.165,96.106,573.814,570.246,0.0
56793.0,STARLINK-6052,PAYLOAD,2024-05-21 14:15:27,14.98330101,0.0002317,70.0007,201.2289,291.628,68.4632,-0.000204,-2.526e-05,0.0,0 STARLINK-6052,1 56793U 23078AC  24142.59406977 -.00002526  00000-0 -20400-3 0  9996,2 56793  70.0007 201.2289 0002317 291.6280  68.4632 14.98330101 54256,6950.193,96.107,573.668,570.447,0.0
56793.0,STARLINK-6052,PAYLOAD,2024-05-22 11:05:12,14.98324392,0.0003074,69.9999,199.0402,270.736,89.3447,-0.00021934,-2.709e-05,0.0,0 STARLINK-6052,1 56793U 23078AC  24143.46194963 -.00002709  00000-0 -21934-3 0  9998,2 56793  69.9999 199.0402 0003074 270.7360  89.3447 14.98324392 54387,6950.21,96.107,574.212,569.939,0.0
56793.0,STARLINK-6052,PAYLOAD,2024-05-23 04:42:40,14.98358557,0.0002935,69.9999,197.1887,271.0398,89.0425,-0.00067433,-8.136e-05,0.0,0 STARLINK-6052,1 56793U 23078AC  24144.19630474 -.00008136  00000-0 -67433-3 0  9995,2 56793  69.9999 197.1887 0002935 271.0398  89.0425 14.98358557 54757,6950.105,96.105,574.009,569.93,0.0
56793.0,STARLINK-6052,PAYLOAD,2024-05-23 12:43:20,14.98355861,0.0002912,69.9999,196.347,270.1428,89.9397,-0.00061393,-7.415e-05,0.0,0 STARLINK-6052,1 56793U 23078AC  24144.53010000 -.00007415  00000-0 -61393-3 0  9998,2 56793  69.9999 196.3470 0002912 270.1428  89.9397 14.98355861 54544,6950.113,96.105,574.002,569.954,0.0
56793.0,STARLINK-6052,PAYLOAD,2024-05-24 04:44:41,14.98324138,0.0003503,69.9987,194.6626,272.1979,87.8779,0.00016422,1.867e-05,0.0,0 STARLINK-6052,1 56793U 23078AC  24145.19770069  .00001867  00000-0  16422-3 0  9995,2 56793  69.9987 194.6626 0003503 272.1979  87.8779 14.98324138 54909,6950.211,96.107,574.511,569.641,0.0
56793.0,STARLINK-6052,PAYLOAD,2024-05-24 12:45:21,14.98330745,0.0003298,69.9993,193.8215,268.6624,91.4157,0.00022767,2.625e-05,0.0,0 STARLINK-6052,1 56793U 23078AC  24145.53149552  .00002625  00000-0  22767-3 0  9992,2 56793  69.9993 193.8215 0003298 268.6624  91.4157 14.98330745 54956,6950.191,96.107,574.348,569.763,0.0
56793.0,STARLINK-6052,PAYLOAD,2024-05-24 20:46:02,14.98316174,0.0003152,69.9996,192.9809,264.6277,95.4523,0.00037525,4.386e-05,0.0,0 STARLINK-6052,1 56793U 23078AC  24145.86530257  .00004386  00000-0  37525-3 0  9998,2 56793  69.9996 192.9809 0003152 264.6277  95.4523 14.98316174 55005,6950.236,96.108,574.291,569.91,0.0
56793.0,STARLINK-6052,PAYLOAD,2024-05-25 04:46:43,14.9831593,0.0003247,69.9995,192.1388,270.5074,89.5713,-2.2312e-05,-3.59e-06,0.0,0 STARLINK-6052,1 56793U 23078AC  24146.19911394 -.00000359  00000-0 -22312-4 0  9997,2 56793  69.9995 192.1388 0003247 270.5074  89.5713 14.98315930 55053,6950.236,96.108,574.358,569.845,0.0
56793.0,STARLINK-6052,PAYLOAD,2024-05-25 12:47:23,14.98319996,0.0003365,69.999,191.2975,270.5693,89.508,1.2662e-07,-9.2e-07,0.0,0 STARLINK-6052,1 56793U 23078AC  24146.53291271 -.00000092  00000-0  12662-6 0  9992,2 56793  69.9990 191.2975 0003365 270.5693  89.5080 14.98319996 54847,6950.224,96.108,574.428,569.75,0.0
56793.0,STARLINK-6052,PAYLOAD,2024-05-26 04:48:43,14.98332037,0.0003274,69.9989,189.6131,268.6118,91.4666,-4.5446e-05,-6.35e-06,0.0,0 STARLINK-6052,1 56793U 23078AC  24147.20050772 -.00000635  00000-0 -45446-4 0  9994,2 56793  69.9989 189.6131 0003274 268.6118  91.4666 14.98332037 55203,6950.187,96.107,574.327,569.776,0.0
56793.0,STARLINK-6052,PAYLOAD,2024-05-26 12:49:23,14.98333694,0.0003218,69.999,188.7715,268.142,91.937,-9.3522e-06,-2.05e-06,0.0,0 STARLINK-6052,1 56793U 23078AC  24147.53430536 -.00000205  00000-0 -93522-5 0  9992,2 56793  69.9990 188.7715 0003218 268.1420  91.9370 14.98333694 54994,6950.181,96.107,574.283,569.81,0.0
56793.0,STARLINK-6052,PAYLOAD,2024-05-27 04:50:44,14.98321419,0.0003258,69.9991,187.0884,267.1077,92.9709,0.00023392,2.699e-05,0.0,0 STARLINK-6052,1 56793U 23078AC  24148.20190626  .00002699  00000-0  23392-3 0  9993,2 56793  69.9991 187.0884 0003258 267.1077  92.9709 14.98321419 55355,6950.219,96.108,574.349,569.82,0.0
56793.0,STARLINK-6052,PAYLOAD,2024-05-27 12:51:32,14.98229059,0.000333,69.9989,186.248,261.2848,98.7934,-0.00096267,-0.00011531,0.0,0 STARLINK-6052,1 56793U 23078AC  24148.53578917 -.00011531  00000-0 -96267-3 0  9990,2 56793  69.9989 186.2480 0003330 261.2848  98.7934 14.98229059 55404,6950.505,96.113,574.685,570.056,0.0
56793.0,STARLINK-6052,PAYLOAD,2024-05-27 17:39:49,14.98331265,0.0003276,69.999,185.741,275.2306,84.8479,9.9507e-05,1.094e-05,0.0,0 STARLINK-6052,1 56793U 23078AC  24148.73598425  .00001094  00000-0  99507-4 0  9990,2 56793  69.9990 185.7410 0003276 275.2306  84.8479 14.98331265 55432,6950.189,96.107,574.331,569.777,0.0
56793.0,STARLINK-6052,PAYLOAD,2024-05-28 12:53:25,14.98333244,0.0003247,69.9989,183.7217,273.7358,86.343,3.2146e-05,2.91e-06,0.0,0 STARLINK-6052,1 56793U 23078AC  24149.53710368  .00000291  00000-0  32146-4 0  9995,2 56793  69.9989 183.7217 0003247 273.7358  86.3430 14.98333244 55298,6950.183,96.107,574.305,569.791,0.0
